NORAD_CAT_ID,OBJECT_NAME,OBJECT_TYPE,EPOCH,MEAN_MOTION,ECCENTRICITY,INCLINATION,RA_OF_ASC_NODE,ARG_OF_PERICENTER,MEAN_ANOMALY,BSTAR,MEAN_MOTION_DOT,MEAN_MOTION_DDOT,TLE_LINE0,TLE_LINE1,TLE_LINE2,SEMIMAJOR_AXIS,PERIOD,APOGEE,PERIGEE,DECAYED
55277.0,STARLINK-5299,PAYLOAD,2024-02-23 12:07:10,14.98332131,0.0002618,70.0001,123.3668,268.2702,91.8158,-2.412e-05,-3.81e-06,0.0,0 STARLINK-5299,1 55277U 23010J   24054.50498223 -.00000381  00000-0 -24120-4 0  9997,2 55277  70.0001 123.3668 0002618 268.2702  91.8158 14.98332131 60855,6950.186,96.107,573.871,570.232,0.0
55277.0,STARLINK-5299,PAYLOAD,2024-02-23 13:43:18,14.98335049,0.0002718,70.0,123.1992,267.2826,92.8022,5.3154e-05,5.41e-06,0.0,0 STARLINK-5299,1 55277U 23010J   24054.57173823  .00000541  00000-0  53154-4 0  9995,2 55277  70.0000 123.1992 0002718 267.2826  92.8022 14.98335049 61177,6950.177,96.107,573.931,570.153,0.0
55277.0,STARLINK-5299,PAYLOAD,2024-02-24 12:09:11,14.98325288,0.0002698,70.0001,120.8418,261.6261,98.4592,-2.2627e-05,-3.63e-06,0.0,0 STARLINK-5299,1 55277U 23010J   24055.50638570 -.00000363  00000-0 -22627-4 0  9999,2 55277  70.0001 120.8418 0002698 261.6261  98.4592 14.98325288 61003,6950.207,96.107,573.948,570.197,0.0
55277.0,STARLINK-5299,PAYLOAD,2024-02-24 13:45:19,14.98325699,0.0002962,69.9999,120.6735,267.3616,92.7204,-3.8721e-05,-5.55e-06,0.0,0 STARLINK-5299,1 55277U 23010J   24055.57314599 -.00000555  00000-0 -38721-4 0  9993,2 55277  69.9999 120.6735 0002962 267.3616  92.7204 14.98325699 61325,6950.206,96.107,574.13,570.013,0.0
55277.0,STARLINK-5299,PAYLOAD,2024-02-25 04:10:31,14.98334149,0.0002835,69.9996,119.1582,264.9781,95.1055,-1.6841e-05,-2.94e-06,0.0,0 STARLINK-5299,1 55277U 23010J   24056.17398007 -.00000294  00000-0 -16841-4 0  9995,2 55277  69.9996 119.1582 0002835 264.9781  95.1055 14.98334149 61107,6950.18,96.107,574.015,570.075,0.0
55277.0,STARLINK-5299,PAYLOAD,2024-02-25 13:47:19,14.98337516,0.0002929,69.9995,118.1489,267.8828,92.1996,7.0609e-06,-9e-08,0.0,0 STARLINK-5299,1 55277U 23010J   24056.57453610 -.00000009  00000-0  70609-5 0  9997,2 55277  69.9995 118.1489 0002929 267.8828  92.1996 14.98337516 61471,6950.17,96.107,574.07,569.999,0.0
55277.0,STARLINK-5299,PAYLOAD,2024-02-25 21:48:00,14.98331166,0.0002782,69.9999,117.3066,285.796,74.2893,-1.4869e-05,-2.7e-06,0.0,0 STARLINK-5299,1 55277U 23010J   24056.90834156 -.00000270  00000-0 -14869-4 0  9998,2 55277  69.9999 117.3066 0002782 285.7960  74.2893 14.98331166 61528,6950.189,96.107,573.988,570.121,0.0
55277.0,STARLINK-5299,PAYLOAD,2024-02-26 04:12:33,14.98325933,0.000295,69.9993,116.6332,266.6142,93.468,7.1061e-06,-8e-08,0.0,0 STARLINK-5299,1 55277U 23010J   24057.17538243 -.00000008  00000-0  71061-5 0  9992,2 55277  69.9993 116.6332 0002950 266.6142  93.4680 14.98325933 61259,6950.205,96.107,574.121,570.02,0.0
55277.0,STARLINK-5299,PAYLOAD,2024-02-26 13:49:21,14.98330919,0.0002894,69.9993,115.6233,265.759,94.3239,5.8603e-05,6.06e-06,0.0,0 STARLINK-5299,1 55277U 23010J   24057.57593819  .00000606  00000-0  58603-4 0  9995,2 55277  69.9993 115.6233 0002894 265.7590  94.3239 14.98330919 61623,6950.19,96.107,574.066,570.044,0.0
55277.0,STARLINK-5299,PAYLOAD,2024-02-27 04:14:33,14.98333421,0.0002453,70.0,114.1088,269.4447,90.6431,-9.3106e-05,-1.204e-05,0.0,0 STARLINK-5299,1 55277U 23010J   24058.17678238 -.00001204  00000-0 -93106-4 0  9995,2 55277  70.0000 114.1088 0002453 269.4447  90.6431 14.98333421 61400,6950.182,96.107,573.752,570.342,0.0
55277.0,STARLINK-5299,PAYLOAD,2024-02-27 13:51:22,14.98327415,0.0002715,69.9995,113.0991,267.2108,92.8741,-5.1716e-05,-7.1e-06,0.0,0 STARLINK-5299,1 55277U 23010J   24058.57734444 -.00000710  00000-0 -51716-4 0  9993,2 55277  69.9995 113.0991 0002715 267.2108  92.8741 14.98327415 61776,6950.201,96.107,573.953,570.179,0.0
55277.0,STARLINK-5299,PAYLOAD,2024-02-27 20:15:54,14.98328837,0.000278,69.9995,112.4259,269.3525,90.7315,-3.2837e-05,-4.85e-06,0.0,0 STARLINK-5299,1 55277U 23010J   24058.84438336 -.00000485  00000-0 -32837-4 0  9996,2 55277  69.9995 112.4259 0002780 269.3525  90.7315 14.98328837 61812,6950.196,96.107,573.994,570.129,0.0
55277.0,STARLINK-5299,PAYLOAD,2024-02-28 04:16:34,14.98331304,0.0002822,69.9992,111.5842,270.8938,89.1898,3.4157e-05,3.15e-06,0.0,0 STARLINK-5299,1 55277U 23010J   24059.17817984  .00000315  00000-0  34157-4 0  9990,2 55277  69.9992 111.5842 0002822 270.8938  89.1898 14.98331304 61551,6950.189,96.107,574.015,570.093,0.0
55277.0,STARLINK-5299,PAYLOAD,2024-02-28 12:17:15,14.98331979,0.0002859,69.9991,110.7424,271.3048,88.7783,1.7069e-05,1.11e-06,0.0,0 STARLINK-5299,1 55277U 23010J   24059.51197954  .00000111  00000-0  17069-4 0  9993,2 55277  69.9991 110.7424 0002859 271.3048  88.7783 14.98331979 61911,6950.187,96.107,574.039,570.065,0.0
55277.0,STARLINK-5299,PAYLOAD,2024-02-28 20:17:55,14.98332026,0.0002868,69.9991,109.9008,270.9836,89.0995,2.0851e-05,1.56e-06,0.0,0 STARLINK-5299,1 55277U 23010J   24059.84577883  .00000156  00000-0  20851-4 0  9994,2 55277  69.9991 109.9008 0002868 270.9836  89.0995 14.98332026 61967,6950.187,96.107,574.045,570.058,0.0
55277.0,STARLINK-5299,PAYLOAD,2024-02-29 04:18:35,14.98330009,0.000291,69.9989,109.0591,271.2293,88.8533,4.8301e-05,4.83e-06,0.0,0 STARLINK-5299,1 55277U 23010J   24060.17957897  .00000483  00000-0  48301-4 0  9992,2 55277  69.9989 109.0591 0002910 271.2293  88.8533 14.98330009 61707,6950.193,96.107,574.08,570.035,0.0
55277.0,STARLINK-5299,PAYLOAD,2024-02-29 12:19:15,14.98330204,0.0002917,69.9989,108.2174,271.0427,89.0398,4.4606e-05,4.39e-06,0.0,0 STARLINK-5299,1 55277U 23010J   24060.51337875  .00000439  00000-0  44606-4 0  9993,2 55277  69.9989 108.2174 0002917 271.0427  89.0398 14.98330204 62068,6950.192,96.107,574.085,570.03,0.0
55277.0,STARLINK-5299,PAYLOAD,2024-03-01 04:20:36,14.98329647,0.0002867,69.9991,106.5347,267.7861,92.297,-2.6992e-05,-4.15e-06,0.0,0 STARLINK-5299,1 55277U 23010J   24061.18098075 -.00000415  00000-0 -26992-4 0  9997,2 55277  69.9991 106.5347 0002867 267.7861  92.2970 14.98329647 61859,6950.194,96.107,574.052,570.066,0.0
55277.0,STARLINK-5299,PAYLOAD,2024-03-01 12:21:17,14.98330714,0.0003024,69.9987,105.6927,269.1775,90.9038,-3.418e-05,-5.01e-06,0.0,0 STARLINK-5299,1 55277U 23010J   24061.51478022 -.00000501  00000-0 -34180-4 0  9992,2 55277  69.9987 105.6927 0003024 269.1775  90.9038 14.98330714 62212,6950.191,96.107,574.157,569.954,0.0
55277.0,STARLINK-5299,PAYLOAD,2024-03-02 10:47:09,14.98330247,0.0003042,69.9985,103.3349,267.9277,92.1534,-2.4351e-05,-3.84e-06,0.0,0 STARLINK-5299,1 55277U 23010J   24062.44942028 -.00000384  00000-0 -24351-4 0  9995,2 55277  69.9985 103.3349 0003042 267.9277  92.1534 14.98330247 62043,6950.192,96.107,574.171,569.943,0.0
55277.0,STARLINK-5299,PAYLOAD,2024-03-02 12:23:17,14.98331027,0.000304,69.9985,103.1667,268.1022,91.9789,-1.5003e-05,-2.72e-06,0.0,0 STARLINK-5299,1 55277U 23010J   24062.51617952 -.00000272  00000-0 -15003-4 0  9998,2 55277  69.9985 103.1667 0003040 268.1022  91.9789 14.98331027 62364,6950.19,96.107,574.168,569.942,0.0
55277.0,STARLINK-5299,PAYLOAD,2024-03-03 10:49:10,14.9832341,0.0002968,69.9992,100.8107,272.0027,88.0793,0.00019628,2.249e-05,0.0,0 STARLINK-5299,1 55277U 23010J   24063.45081842  .00002249  00000-0  19628-3 0  9995,2 55277  69.9992 100.8107 0002968 272.0027  88.0793 14.98323410 62192,6950.213,96.107,574.141,570.015,0.0
55277.0,STARLINK-5299,PAYLOAD,2024-03-03 12:25:18,14.983333,0.0002919,69.9991,100.6426,270.0092,90.0733,3.8961e-05,3.72e-06,0.0,0 STARLINK-5299,1 55277U 23010J   24063.51757586  .00000372  00000-0  38961-4 0  9994,2 55277  69.9991 100.6426 0002919 270.0092  90.0733 14.98333300 62511,6950.183,96.107,574.076,570.019,0.0
55277.0,STARLINK-5299,PAYLOAD,2024-03-04 10:51:11,14.98324427,0.000249,69.9997,98.2878,251.9269,108.1619,0.00014992,1.696e-05,0.0,0 STARLINK-5299,1 55277U 23010J   24064.45221733  .00001696  00000-0  14992-3 0  9995,2 55277  69.9997  98.2878 0002490 251.9269 108.1619 14.98324427 62343,6950.21,96.107,573.806,570.345,0.0
55277.0,STARLINK-5299,PAYLOAD,2024-03-04 12:27:19,14.98330519,0.0002615,69.9994,98.1188,258.5762,101.5104,4.0843e-05,3.94e-06,0.0,0 STARLINK-5299,1 55277U 23010J   24064.51897640  .00000394  00000-0  40843-4 0  9997,2 55277  69.9994  98.1188 0002615 258.5762 101.5104 14.98330519 62663,6950.191,96.107,573.874,570.239,0.0
55277.0,STARLINK-5299,PAYLOAD,2024-03-04 18:51:52,14.98314387,0.0002242,70.001,97.4442,272.3501,87.7401,0.00016087,1.826e-05,0.0,0 STARLINK-5299,1 55277U 23010J   24064.78602606  .00001826  00000-0  16087-3 0  9995,2 55277  70.0010  97.4442 0002242 272.3501  87.7401 14.98314387 62391,6950.241,96.108,573.664,570.548,0.0
55277.0,STARLINK-5299,PAYLOAD,2024-03-05 02:52:32,14.98327707,0.0002114,70.0012,96.6031,253.2617,106.831,-8.4794e-05,-1.104e-05,0.0,0 STARLINK-5299,1 55277U 23010J   24065.11982232 -.00001104  00000-0 -84794-4 0  9991,2 55277  70.0012  96.6031 0002114 253.2617 106.8310 14.98327707 62440,6950.2,96.107,573.534,570.596,0.0
55277.0,STARLINK-5299,PAYLOAD,2024-03-05 12:29:23,14.98298172,0.0002877,69.9995,95.5923,281.8326,78.251,-0.00036436,-4.434e-05,0.0,0 STARLINK-5299,1 55277U 23010J   24065.52041339 -.00004434  00000-0 -36436-3 0  9998,2 55277  69.9995  95.5923 0002877 281.8326  78.2510 14.98298172 62813,6950.291,96.109,574.156,570.157,0.0
55277.0,STARLINK-5299,PAYLOAD,2024-03-06 02:54:34,14.98317357,0.0003783,69.9977,94.0719,278.9441,81.1289,-0.00010083,-1.296e-05,0.0,0 STARLINK-5299,1 55277U 23010J   24066.12123778 -.00001296  00000-0 -10083-3 0  9996,2 55277  69.9977  94.0719 0003783 278.9441  81.1289 14.98317357 62590,6950.232,96.108,574.726,569.468,0.0
55277.0,STARLINK-5299,PAYLOAD,2024-03-06 10:55:14,14.98328959,0.0003168,69.9986,93.2355,269.5925,90.4871,4.1288e-06,-4.4e-07,0.0,0 STARLINK-5299,1 55277U 23010J   24066.45502960 -.00000044  00000-0  41288-5 0  9998,2 55277  69.9986  93.2355 0003168 269.5925  90.4871 14.98328959 62643,6950.196,96.107,574.263,569.859,0.0
